{"type": "FeatureCollection", "features": [ {"type": "Feature", "properties": {"norad_id": 29769, "name": "FENGYUN 1C DEB", "group": "fengyun-1c-debris", "lat": -30.24605652036359, "lon": -136.33721958959669, "alt_km": 856.9954883445253, "timestamp": "2025-12-17T15:50:10.050606+00:00", "meta": {"OBJECT_NAME": "FENGYUN 1C DEB", "OBJECT_ID": "1999-025BK", "EPOCH": "2025-12-16T16:46:05.678112", "MEAN_MOTION": 14.13550872, "ECCENTRICITY": 0.00935847, "INCLINATION": 99.1061, "RA_OF_ASC_NODE": 48.0506, "ARG_OF_PERICENTER": 119.4569, "MEAN_ANOMALY": 241.598, "EPHEMERIS_TYPE": 0, "CLASSIFICATION_TYPE": "U", "NORAD_CAT_ID": 29769, "ELEMENT_SET_NO": 999, "REV_AT_EPOCH": 96737, "BSTAR": 0.0009456636, "MEAN_MOTION_DOT": 1.812e-05, "MEAN_MOTION_DDOT": 0}, "tle": {"line1": "1 29769U 99025BK  25350.69867683  .00001812  00000+0  94566-3 0  9990", "line2": "2 29769  99.1061  48.0506 0093584 119.4569 241.5980 14.13550872967375"}}, "geometry": {"type": "Point", "coordinates": [-136.33721958959669, -30.24605652036359]}}, {"type": "Feature", "properties": {"norad_id": 29770, "name": "FENGYUN 1C DEB", "group": "fengyun-1c-debris", "lat": 66.28555805020369, "lon": -92.0037374789523, "alt_km": 855.5952939262188, "timestamp": "2025-12-17T15:50:10.050616+00:00", "meta": {"OBJECT_NAME": "FENGYUN 1C DEB", "OBJECT_ID": "1999-025BL", "EPOCH": "2025-12-17T03:36:29.407104", "MEAN_MOTION": 14.20143433, "ECCENTRICITY": 0.00632311, "INCLINATION": 98.8467, "RA_OF_ASC_NODE": 66.7212, "ARG_OF_PERICENTER": 258.5424, "MEAN_ANOMALY": 130.5657, "EPHEMERIS_TYPE": 0, "CLASSIFICATION_TYPE": "U", "NORAD_CAT_ID": 29770, "ELEMENT_SET_NO": 999, "REV_AT_EPOCH": 97149, "BSTAR": 0.0011989624, "MEAN_MOTION_DOT": 2.564e-05, "MEAN_MOTION_DDOT": 0}, "tle": {"line1": "1 29770U 99025BL  25351.15034036  .00002564  00000+0  11990-2 0  9996", "line2": "2 29770  98.8467  66.7212 0063231 258.5424 130.5657 14.20143433971490"}}, "geometry": {"type": "Point", "coordinates": [-92.0037374789523, 66.28555805020369]}}, {"type": "Feature", "properties": {"norad_id": 29772, "name": "FENGYUN 1C DEB", "group": "fengyun-1c-debris", "lat": 81.15522298815792, "lon": 91.93736665921992, "alt_km": 975.1200735295597, "timestamp": "2025-12-17T15:50:10.050627+00:00", "meta": {"OBJECT_NAME": "FENGYUN 1C DEB", "OBJECT_ID": "1999-025BN", "EPOCH": "2025-12-17T02:19:28.862112", "MEAN_MOTION": 14.03227225, "ECCENTRICITY": 0.0137901, "INCLINATION": 98.3872, "RA_OF_ASC_NODE": 199.9597, "ARG_OF_PERICENTER": 278.0614, "MEAN_ANOMALY": 212.2813, "EPHEMERIS_TYPE": 0, "CLASSIFICATION_TYPE": "U", "NORAD_CAT_ID": 29772, "ELEMENT_SET_NO": 999, "REV_AT_EPOCH": 96316, "BSTAR": 0.0009012511, "MEAN_MOTION_DOT": 1.488e-05, "MEAN_MOTION_DDOT": 0}, "tle": {"line1": "1 29772U 99025BN  25351.09686183  .00001488  00000+0  90125-3 0  9999", "line2": "2 29772  98.3872 199.9597 0137901 278.0614 212.2813 14.03227225963166"}}, "geometry": {"type": "Point", "coordinates": [91.93736665921992, 81.15522298815792]}}, {"type": "Feature", "properties": {"norad_id": 29773, "name": "FENGYUN 1C DEB", "group": "fengyun-1c-debris", "lat": -30.167054692686285, "lon": -39.87682212258825, "alt_km": 791.9499908090093, "timestamp": "2025-12-17T15:50:10.050637+00:00", "meta": {"OBJECT_NAME": "FENGYUN 1C DEB", "OBJECT_ID": "1999-025BP", "EPOCH": "2025-12-16T22:36:19.190592", "MEAN_MOTION": 14.27578186, "ECCENTRICITY": 0.00463753, "INCLINATION": 98.9876, "RA_OF_ASC_NODE": 144.6633, "ARG_OF_PERICENTER": 278.3319, "MEAN_ANOMALY": 204.9566, "EPHEMERIS_TYPE": 0, "CLASSIFICATION_TYPE": "U", "NORAD_CAT_ID": 29773, "ELEMENT_SET_NO": 999, "REV_AT_EPOCH": 98257, "BSTAR": 0.00033824337, "MEAN_MOTION_DOT": 7.94e-06, "MEAN_MOTION_DDOT": 0}, "tle": {"line1": "1 29773U 99025BP  25350.94188878  .00000794  00000+0  33824-3 0  9993", "line2": "2 29773  98.9876 144.6633 0046375 278.3319 204.9566 14.27578186982574"}}, "geometry": {"type": "Point", "coordinates": [-39.87682212258825, -30.167054692686285]}}, {"type": "Feature", "properties": {"norad_id": 29774, "name": "FENGYUN 1C DEB", "group": "fengyun-1c-debris", "lat": 80.72872650045248, "lon": -169.55107348974707, "alt_km": 773.4835200851758, "timestamp": "2025-12-17T15:50:10.050648+00:00", "meta": {"OBJECT_NAME": "FENGYUN 1C DEB", "OBJECT_ID": "1999-025BQ", "EPOCH": "2025-12-17T07:32:17.242080", "MEAN_MOTION": 14.22736192, "ECCENTRICITY": 0.00512385, "INCLINATION": 99.0766, "RA_OF_ASC_NODE": 291.78, "ARG_OF_PERICENTER": 110.3785, "MEAN_ANOMALY": 11.7734, "EPHEMERIS_TYPE": 0, "CLASSIFICATION_TYPE": "U", "NORAD_CAT_ID": 29774, "ELEMENT_SET_NO": 999, "REV_AT_EPOCH": 98140, "BSTAR": 0.00015159595, "MEAN_MOTION_DOT": 2.98e-06, "MEAN_MOTION_DDOT": 0}, "tle": {"line1": "1 29774U 99025BQ  25351.31408845  .00000298  00000+0  15160-3 0  9997", "line2": "2 29774  99.0766 291.7800 0051238 110.3785  11.7734 14.22736192981401"}}, "geometry": {"type": "Point", "coordinates": [-169.55107348974707, 80.72872650045248]}}, {"type": "Feature", "properties": {"norad_id": 29776, "name": "FENGYUN 1C DEB", "group": "fengyun-1c-debris", "lat": 71.99583591201517, "lon": -10.08953204220795, "alt_km": 876.5591540449013, "timestamp": "2025-12-17T15:50:10.050658+00:00", "meta": {"OBJECT_NAME": "FENGYUN 1C DEB", "OBJECT_ID": "1999-025BS", "EPOCH": "2025-12-17T02:08:21.429888", "MEAN_MOTION": 14.07777939, "ECCENTRICITY": 0.00228408, "INCLINATION": 98.7708, "RA_OF_ASC_NODE": 17.7173, "ARG_OF_PERICENTER": 258.0241, "MEAN_ANOMALY": 165.5036, "EPHEMERIS_TYPE": 0, "CLASSIFICATION_TYPE": "U", "NORAD_CAT_ID": 29776, "ELEMENT_SET_NO": 999, "REV_AT_EPOCH": 97141, "BSTAR": 0.00024030682, "MEAN_MOTION_DOT": 3.65e-06, "MEAN_MOTION_DDOT": 0}, "tle": {"line1": "1 29776U 99025BS  25351.08913692  .00000365  00000+0  24031-3 0  9996", "line2": "2 29776  98.7708  17.7173 0022840 258.0241 165.5036 14.07777939971418"}}, "geometry": {"type": "Point", "coordinates": [-10.08953204220795, 71.99583591201517]}}, {"type": "Feature", "properties": {"norad_id": 29777, "name": "FENGYUN 1C DEB", "group": "fengyun-1c-debris", "lat": -22.948657235604454, "lon": -135.44278136285652, "alt_km": 859.2194150482455, "timestamp": "2025-12-17T15:50:10.050684+00:00", "meta": {"OBJECT_NAME": "FENGYUN 1C DEB", "OBJECT_ID": "1999-025BT", "EPOCH": "2025-12-17T02:55:47.019936", "MEAN_MOTION": 13.92106585, "ECCENTRICITY": 0.00928902, "INCLINATION": 99.2831, "RA_OF_ASC_NODE": 47.9899, "ARG_OF_PERICENTER": 197.8614, "MEAN_ANOMALY": 191.5656, "EPHEMERIS_TYPE": 0, "CLASSIFICATION_TYPE": "U", "NORAD_CAT_ID": 29777, "ELEMENT_SET_NO": 999, "REV_AT_EPOCH": 96102, "BSTAR": 9.092071e-05, "MEAN_MOTION_DOT": 7.5e-07, "MEAN_MOTION_DDOT": 0}, "tle": {"line1": "1 29777U 99025BT  25351.12207199  .00000075  00000+0  90921-4 0  9990", "line2": "2 29777  99.2831  47.9899 0092890 197.8614 191.5656 13.92106585961027"}}, "geometry": {"type": "Point", "coordinates": [-135.44278136285652, -22.948657235604454]}}, {"type": "Feature", "properties": {"norad_id": 29779, "name": "FENGYUN 1C DEB", "group": "fengyun-1c-debris", "lat": -0.8069828788907586, "lon": -177.37393389920453, "alt_km": 810.8508091815793, "timestamp": "2025-12-17T15:50:10.050697+00:00", "meta": {"OBJECT_NAME": "FENGYUN 1C DEB", "OBJECT_ID": "1999-025BV", "EPOCH": "2025-12-17T06:29:33.637344", "MEAN_MOTION": 14.13446897, "ECCENTRICITY": 0.00637114, "INCLINATION": 98.6771, "RA_OF_ASC_NODE": 2.3717, "ARG_OF_PERICENTER": 151.336, "MEAN_ANOMALY": 209.1339, "EPHEMERIS_TYPE": 0, "CLASSIFICATION_TYPE": "U", "NORAD_CAT_ID": 29779, "ELEMENT_SET_NO": 999, "REV_AT_EPOCH": 97476, "BSTAR": 0.00021165016, "MEAN_MOTION_DOT": 3.63e-06, "MEAN_MOTION_DDOT": 0}, "tle": {"line1": "1 29779U 99025BV  25351.27052821  .00000363  00000+0  21165-3 0  9991", "line2": "2 29779  98.6771   2.3717 0063711 151.3360 209.1339 14.13446897974768"}}, "geometry": {"type": "Point", "coordinates": [-177.37393389920453, -0.8069828788907586]}}, {"type": "Feature", "properties": {"norad_id": 29780, "name": "FENGYUN 1C DEB", "group": "fengyun-1c-debris", "lat": 77.2930181731699, "lon": -133.62999874429602, "alt_km": 789.550809111217, "timestamp": "2025-12-17T15:50:10.050707+00:00", "meta": {"OBJECT_NAME": "FENGYUN 1C DEB", "OBJECT_ID": "1999-025BW", "EPOCH": "2025-12-16T05:39:34.973280", "MEAN_MOTION": 14.2106568, "ECCENTRICITY": 0.0040921, "INCLINATION": 99.2777, "RA_OF_ASC_NODE": 271.3377, "ARG_OF_PERICENTER": 117.9071, "MEAN_ANOMALY": 242.6257, "EPHEMERIS_TYPE": 0, "CLASSIFICATION_TYPE": "U", "NORAD_CAT_ID": 29780, "ELEMENT_SET_NO": 999, "REV_AT_EPOCH": 97128, "BSTAR": 0.0012372752, "MEAN_MOTION_DOT": 2.661e-05, "MEAN_MOTION_DDOT": 0}, "tle": {"line1": "1 29780U 99025BW  25350.23582145  .00002661  00000+0  12373-2 0  9998", "line2": "2 29780  99.2777 271.3377 0040921 117.9071 242.6257 14.21065680971289"}}, "geometry": {"type": "Point", "coordinates": [-133.62999874429602, 77.2930181731699]}}, {"type": "Feature", "properties": {"norad_id": 29781, "name": "FENGYUN 1C DEB", "group": "fengyun-1c-debris", "lat": 66.7773471153552, "lon": -173.1370014181158, "alt_km": 833.8898528788777, "timestamp": "2025-12-17T15:50:10.050718+00:00", "meta": {"OBJECT_NAME": "FENGYUN 1C DEB", "OBJECT_ID": "1999-025BX", "EPOCH": "2025-12-16T22:30:27.437184", "MEAN_MOTION": 14.05236144, "ECCENTRICITY": 0.0072058, "INCLINATION": 98.8097, "RA_OF_ASC_NODE": 344.9735, "ARG_OF_PERICENTER": 161.4184, "MEAN_ANOMALY": 260.1489, "EPHEMERIS_TYPE": 0, "CLASSIFICATION_TYPE": "U", "NORAD_CAT_ID": 29781, "ELEMENT_SET_NO": 999, "REV_AT_EPOCH": 96702, "BSTAR": 0.00075110138, "MEAN_MOTION_DOT": 1.201e-05, "MEAN_MOTION_DDOT": 0}, "tle": {"line1": "1 29781U 99025BX  25350.93781756  .00001201  00000+0  75110-3 0  9993", "line2": "2 29781  98.8097 344.9735 0072058 161.4184 260.1489 14.05236144967026"}}, "geometry": {"type": "Point", "coordinates": [-173.1370014181158, 66.7773471153552]}}]}